SMOS                    
1 36036U 09059A   26062.13846479  .00000375  00000+0  13345-3 0  9992
2 36036  98.4425 251.0106 0001048  80.3942 279.7365 14.39754308858190
YAOGAN-7                
1 36110U 09069A   26062.13482942  .00000889  00000+0  13027-3 0  9994
2 36110  98.0224 308.5773 0025264  24.2142 336.0250 14.77878934873965
TANDEM-X                
1 36605U 10030A   26061.55096561  .00001203  00000+0  60498-4 0  9992
2 36605  97.4472  70.7755 0001842  94.8863 265.2582 15.19147252870450
CARTOSAT-2B             
1 36795U 10035A   26062.16512882  .00000439  00000+0  66661-4 0  9992
2 36795  97.8459 113.5909 0011575 169.6117 190.5336 14.78693355844185
YAOGAN-10               
1 36834U 10038A   26062.23937699  .00003404  00000+0  40551-3 0  9998
2 36834  97.9086  86.4604 0001732  90.8193 335.4425 14.84985123841482
COSMO-SKYMED 4          
1 37216U 10060A   26062.18217502  .00000203  00000+0  32114-4 0  9997
2 37216  97.8854 247.3125 0001358  84.2289 275.9079 14.82150033828864
RESOURCESAT-2           
1 37387U 11015A   26062.16606934 -.00000199  00000+0 -70904-4 0  9991
2 37387  98.7733 130.2943 0006217 156.0762 204.0705 14.21489972771114
HAIYANG-2A              
1 37781U 11043A   26062.32693273 -.00000003  00000+0  40754-4 0  9993
2 37781  99.3418  67.0293 0000832 265.9783  94.1273 13.78501702732093
RASAT                   
1 37791U 11044D   26062.19990339  .00000747  00000+0  13840-3 0  9992
2 37791  98.0568 155.2409 0020937 165.0677 279.3951 14.68044567777635
SRMSAT                  
1 37841U 11058D   26062.20286726  .00000470  00000+0  11156-3 0  9994
2 37841  19.9732 340.9649 0011887 118.1185  34.7703 14.11544671742822
PLEIADES 1A             
1 38012U 11076F   26062.20729470  .00000372  00000+0  89977-4 0  9991
2 38012  98.2063 138.7025 0001657  93.7501 343.0302 14.58532816756549
ZIYUAN 1-02C (ZY 1-02C) 
1 38038U 11079A   26062.18818413  .00000420  00000+0  15282-3 0  9996
2 38038  98.4193 131.6718 0005270 263.4189 173.3268 14.38115020743977
ARIRANG-3 (KOMPSAT-3)   
1 38338U 12025B   26062.16690602  .00000642  00000+0  13694-3 0  9998
2 38338  98.1052  21.5380 0006779  87.3416 272.8561 14.62091213735857
EXACTVIEW-1 (ADS-1B)    
1 38709U 12039C   26061.93308572  .00000171  00000+0  92782-4 0  9994
2 38709  98.9635 177.0061 0011861 116.2093 244.0306 14.24947635707570
SPOT 6                  
1 38755U 12047A   26062.20775203  .00000237  00000+0  60887-4 0  9998
2 38755  98.2241 130.7073 0001442  96.0064 264.1299 14.58534906717602
PLEIADES 1B             
1 39019U 12068A   26062.15828766  .00000241  00000+0  61737-4 0  9992
2 39019  98.2033 138.6401 0001604  90.7157 269.4226 14.58576231705399
GOKTURK 2               
1 39030U 12073A   26062.15292817  .00000649  00000+0  10242-3 0  9999
2 39030  97.6886 264.8534 0001291  55.0287 305.1044 14.75423775708875
