[{"OBJECT_NAME":"SMOS","OBJECT_ID":"2009-059A","EPOCH":"2026-03-03T03:19:23.357856","MEAN_MOTION":14.39754308,"ECCENTRICITY":0.0001048,"INCLINATION":98.4425,"RA_OF_ASC_NODE":251.0106,"ARG_OF_PERICENTER":80.3942,"MEAN_ANOMALY":279.7365,"EPHEMERIS_TYPE":0,"CLASSIFICATION_TYPE":"U","NORAD_CAT_ID":36036,"ELEMENT_SET_NO":999,"REV_AT_EPOCH":85819,"BSTAR":0.00013345,"MEAN_MOTION_DOT":3.75e-6,"MEAN_MOTION_DDOT":0},{"OBJECT_NAME":"YAOGAN-7","OBJECT_ID":"2009-069A","EPOCH":"2026-03-03T03:14:09.261888","MEAN_MOTION":14.77878934,"ECCENTRICITY":0.0025264,"INCLINATION":98.0224,"RA_OF_ASC_NODE":308.5773,"ARG_OF_PERICENTER":24.2142,"MEAN_ANOMALY":336.025,"EPHEMERIS_TYPE":0,"CLASSIFICATION_TYPE":"U","NORAD_CAT_ID":36110,"ELEMENT_SET_NO":999,"REV_AT_EPOCH":87396,"BSTAR":0.00013027,"MEAN_MOTION_DOT":8.89e-6,"MEAN_MOTION_DDOT":0},{"OBJECT_NAME":"TANDEM-X","OBJECT_ID":"2010-030A","EPOCH":"2026-03-02T13:13:23.428704","MEAN_MOTION":15.19147252,"ECCENTRICITY":0.0001842,"INCLINATION":97.4472,"RA_OF_ASC_NODE":70.7755,"ARG_OF_PERICENTER":94.8863,"MEAN_ANOMALY":265.2582,"EPHEMERIS_TYPE":0,"CLASSIFICATION_TYPE":"U","NORAD_CAT_ID":36605,"ELEMENT_SET_NO":999,"REV_AT_EPOCH":87045,"BSTAR":6.0498e-5,"MEAN_MOTION_DOT":1.203e-5,"MEAN_MOTION_DDOT":0},{"OBJECT_NAME":"CARTOSAT-2B","OBJECT_ID":"2010-035A","EPOCH":"2026-03-03T03:57:47.130048","MEAN_MOTION":14.78693355,"ECCENTRICITY":0.0011575,"INCLINATION":97.8459,"RA_OF_ASC_NODE":113.5909,"ARG_OF_PERICENTER":169.6117,"MEAN_ANOMALY":190.5336,"EPHEMERIS_TYPE":0,"CLASSIFICATION_TYPE":"U","NORAD_CAT_ID":36795,"ELEMENT_SET_NO":999,"REV_AT_EPOCH":84418,"BSTAR":6.6661e-5,"MEAN_MOTION_DOT":4.39e-6,"MEAN_MOTION_DDOT":0},{"OBJECT_NAME":"YAOGAN-10","OBJECT_ID":"2010-038A","EPOCH":"2026-03-03T05:44:42.171936","MEAN_MOTION":14.84985123,"ECCENTRICITY":0.0001732,"INCLINATION":97.9086,"RA_OF_ASC_NODE":86.4604,"ARG_OF_PERICENTER":90.8193,"MEAN_ANOMALY":335.4425,"EPHEMERIS_TYPE":0,"CLASSIFICATION_TYPE":"U","NORAD_CAT_ID":36834,"ELEMENT_SET_NO":999,"REV_AT_EPOCH":84148,"BSTAR":0.00040551,"MEAN_MOTION_DOT":3.404e-5,"MEAN_MOTION_DDOT":0},{"OBJECT_NAME":"COSMO-SKYMED 4","OBJECT_ID":"2010-060A","EPOCH":"2026-03-03T04:22:19.921728","MEAN_MOTION":14.82150033,"ECCENTRICITY":0.0001358,"INCLINATION":97.8854,"RA_OF_ASC_NODE":247.3125,"ARG_OF_PERICENTER":84.2289,"MEAN_ANOMALY":275.9079,"EPHEMERIS_TYPE":0,"CLASSIFICATION_TYPE":"U","NORAD_CAT_ID":37216,"ELEMENT_SET_NO":999,"REV_AT_EPOCH":82886,"BSTAR":3.2114e-5,"MEAN_MOTION_DOT":2.03e-6,"MEAN_MOTION_DDOT":0},{"OBJECT_NAME":"RESOURCESAT-2","OBJECT_ID":"2011-015A","EPOCH":"2026-03-03T03:59:08.390976","MEAN_MOTION":14.21489972,"ECCENTRICITY":0.0006217,"INCLINATION":98.7733,"RA_OF_ASC_NODE":130.2943,"ARG_OF_PERICENTER":156.0762,"MEAN_ANOMALY":204.0705,"EPHEMERIS_TYPE":0,"CLASSIFICATION_TYPE":"U","NORAD_CAT_ID":37387,"ELEMENT_SET_NO":999,"REV_AT_EPOCH":77111,"BSTAR":-7.0904e-5,"MEAN_MOTION_DOT":-1.99e-6,"MEAN_MOTION_DDOT":0},{"OBJECT_NAME":"HAIYANG-2A","OBJECT_ID":"2011-043A","EPOCH":"2026-03-03T07:50:46.987872","MEAN_MOTION":13.78501702,"ECCENTRICITY":8.32e-5,"INCLINATION":99.3418,"RA_OF_ASC_NODE":67.0293,"ARG_OF_PERICENTER":265.9783,"MEAN_ANOMALY":94.1273,"EPHEMERIS_TYPE":0,"CLASSIFICATION_TYPE":"U","NORAD_CAT_ID":37781,"ELEMENT_SET_NO":999,"REV_AT_EPOCH":73209,"BSTAR":4.0754e-5,"MEAN_MOTION_DOT":-3.0e-8,"MEAN_MOTION_DDOT":0},{"OBJECT_NAME":"RASAT","OBJECT_ID":"2011-044D","EPOCH":"2026-03-03T04:47:51.652896","MEAN_MOTION":14.68044567,"ECCENTRICITY":0.0020937,"INCLINATION":98.0568,"RA_OF_ASC_NODE":155.2409,"ARG_OF_PERICENTER":165.0677,"MEAN_ANOMALY":279.3951,"EPHEMERIS_TYPE":0,"CLASSIFICATION_TYPE":"U","NORAD_CAT_ID":37791,"ELEMENT_SET_NO":999,"REV_AT_EPOCH":77763,"BSTAR":0.0001384,"MEAN_MOTION_DOT":7.47e-6,"MEAN_MOTION_DDOT":0},{"OBJECT_NAME":"SRMSAT","OBJECT_ID":"2011-058D","EPOCH":"2026-03-03T04:52:07.731264","MEAN_MOTION":14.11544671,"ECCENTRICITY":0.0011887,"INCLINATION":19.9732,"RA_OF_ASC_NODE":340.9649,"ARG_OF_PERICENTER":118.1185,"MEAN_ANOMALY":34.7703,"EPHEMERIS_TYPE":0,"CLASSIFICATION_TYPE":"U","NORAD_CAT_ID":37841,"ELEMENT_SET_NO":999,"REV_AT_EPOCH":74282,"BSTAR":0.00011156,"MEAN_MOTION_DOT":4.7e-6,"MEAN_MOTION_DDOT":0},{"OBJECT_NAME":"PLEIADES 1A","OBJECT_ID":"2011-076F","EPOCH":"2026-03-03T04:58:30.262080","MEAN_MOTION":14.58532816,"ECCENTRICITY":0.0001657,"INCLINATION":98.2063,"RA_OF_ASC_NODE":138.7025,"ARG_OF_PERICENTER":93.7501,"MEAN_ANOMALY":343.0302,"EPHEMERIS_TYPE":0,"CLASSIFICATION_TYPE":"U","NORAD_CAT_ID":38012,"ELEMENT_SET_NO":999,"REV_AT_EPOCH":75654,"BSTAR":8.9977e-5,"MEAN_MOTION_DOT":3.72e-6,"MEAN_MOTION_DDOT":0},{"OBJECT_NAME":"ZIYUAN 1-02C (ZY 1-02C)","OBJECT_ID":"2011-079A","EPOCH":"2026-03-03T04:30:59.108832","MEAN_MOTION":14.3811502,"ECCENTRICITY":0.000527,"INCLINATION":98.4193,"RA_OF_ASC_NODE":131.6718,"ARG_OF_PERICENTER":263.4189,"MEAN_ANOMALY":173.3268,"EPHEMERIS_TYPE":0,"CLASSIFICATION_TYPE":"U","NORAD_CAT_ID":38038,"ELEMENT_SET_NO":999,"REV_AT_EPOCH":74397,"BSTAR":0.00015282,"MEAN_MOTION_DOT":4.2e-6,"MEAN_MOTION_DDOT":0},{"OBJECT_NAME":"ARIRANG-3 (KOMPSAT-3)","OBJECT_ID":"2012-025B","EPOCH":"2026-03-03T04:00:20.680128","MEAN_MOTION":14.62091213,"ECCENTRICITY":0.0006779,"INCLINATION":98.1052,"RA_OF_ASC_NODE":21.538,"ARG_OF_PERICENTER":87.3416,"MEAN_ANOMALY":272.8561,"EPHEMERIS_TYPE":0,"CLASSIFICATION_TYPE":"U","NORAD_CAT_ID":38338,"ELEMENT_SET_NO":999,"REV_AT_EPOCH":73585,"BSTAR":0.00013694,"MEAN_MOTION_DOT":6.42e-6,"MEAN_MOTION_DDOT":0},{"OBJECT_NAME":"EXACTVIEW-1 (ADS-1B)","OBJECT_ID":"2012-039C","EPOCH":"2026-03-02T22:23:38.606208","MEAN_MOTION":14.24947635,"ECCENTRICITY":0.0011861,"INCLINATION":98.9635,"RA_OF_ASC_NODE":177.0061,"ARG_OF_PERICENTER":116.2093,"MEAN_ANOMALY":244.0306,"EPHEMERIS_TYPE":0,"CLASSIFICATION_TYPE":"U","NORAD_CAT_ID":38709,"ELEMENT_SET_NO":999,"REV_AT_EPOCH":70757,"BSTAR":9.2782e-5,"MEAN_MOTION_DOT":1.71e-6,"MEAN_MOTION_DDOT":0},{"OBJECT_NAME":"SPOT 6","OBJECT_ID":"2012-047A","EPOCH":"2026-03-03T04:59:09.775392","MEAN_MOTION":14.58534906,"ECCENTRICITY":0.0001442,"INCLINATION":98.2241,"RA_OF_ASC_NODE":130.7073,"ARG_OF_PERICENTER":96.0064,"MEAN_ANOMALY":264.1299,"EPHEMERIS_TYPE":0,"CLASSIFICATION_TYPE":"U","NORAD_CAT_ID":38755,"ELEMENT_SET_NO":999,"REV_AT_EPOCH":71760,"BSTAR":6.0887e-5,"MEAN_MOTION_DOT":2.37e-6,"MEAN_MOTION_DDOT":0},{"OBJECT_NAME":"PLEIADES 1B","OBJECT_ID":"2012-068A","EPOCH":"2026-03-03T03:47:56.053824","MEAN_MOTION":14.58576231,"ECCENTRICITY":0.0001604,"INCLINATION":98.2033,"RA_OF_ASC_NODE":138.6401,"ARG_OF_PERICENTER":90.7157,"MEAN_ANOMALY":269.4226,"EPHEMERIS_TYPE":0,"CLASSIFICATION_TYPE":"U","NORAD_CAT_ID":39019,"ELEMENT_SET_NO":999,"REV_AT_EPOCH":70539,"BSTAR":6.1737e-5,"MEAN_MOTION_DOT":2.41e-6,"MEAN_MOTION_DDOT":0},{"OBJECT_NAME":"GOKTURK 2","OBJECT_ID":"2012-073A","EPOCH":"2026-03-03T03:40:12.993888","MEAN_MOTION":14.75423775,"ECCENTRICITY":0.0001291,"INCLINATION":97.6886,"RA_OF_ASC_NODE":264.8534,"ARG_OF_PERICENTER":55.0287,"MEAN_ANOMALY":305.1044,"EPHEMERIS_TYPE":0,"CLASSIFICATION_TYPE":"U","NORAD_CAT_ID":39030,"ELEMENT_SET_NO":999,"REV_AT_EPOCH":70887,"BSTAR":0.00010242,"MEAN_MOTION_DOT":6.49e-6,"MEAN_MOTION_DDOT":0}]
